[{"OBJECT_NAME":"OBJECT A","OBJECT_ID":"2025-013A","EPOCH":"2026-03-09T23:29:31.895232","MEAN_MOTION":15.29260221,"ECCENTRICITY":0.0010321,"INCLINATION":97.6364,"RA_OF_ASC_NODE":244.5149,"ARG_OF_PERICENTER":282.3775,"MEAN_ANOMALY":77.6309,"EPHEMERIS_TYPE":0,"CLASSIFICATION_TYPE":"U","NORAD_CAT_ID":62729,"ELEMENT_SET_NO":999,"REV_AT_EPOCH":6276,"BSTAR":0.0013206527,"MEAN_MOTION_DOT":0.00037616,"MEAN_MOTION_DDOT":0},{"OBJECT_NAME":"STARLINK-35978","OBJECT_ID":"2025-270P","EPOCH":"2026-03-09T22:22:11.626464","MEAN_MOTION":15.27611046,"ECCENTRICITY":0.00018639,"INCLINATION":43.0012,"RA_OF_ASC_NODE":54.7498,"ARG_OF_PERICENTER":267.9731,"MEAN_ANOMALY":92.0907,"EPHEMERIS_TYPE":0,"CLASSIFICATION_TYPE":"U","NORAD_CAT_ID":66601,"ELEMENT_SET_NO":999,"REV_AT_EPOCH":1758,"BSTAR":0.0013325163,"MEAN_MOTION_DOT":0.00036623,"MEAN_MOTION_DDOT":0}]
